OBJECT_NAME,OBJECT_ID,EPOCH,MEAN_MOTION,ECCENTRICITY,INCLINATION,RA_OF_ASC_NODE,ARG_OF_PERICENTER,MEAN_ANOMALY,EPHEMERIS_TYPE,CLASSIFICATION_TYPE,NORAD_CAT_ID,ELEMENT_SET_NO,REV_AT_EPOCH,BSTAR,MEAN_MOTION_DOT,MEAN_MOTION_DDOT
STARLINK-30592,2023-161F,2026-06-30T11:49:43.205088,15.34384440,.00008362,53.1613,0.7713,86.4111,273.6987,0,U,58102,999,15170,-.25678942E-4,-.1243E-4,0
STARLINK-30589,2023-161G,2026-06-30T12:40:23.462976,15.30195306,.00008745,53.1598,1.4988,104.9968,255.1129,0,U,58103,999,15169,.13618183E-3,.3676E-4,0
STARLINK-30617,2023-161H,2026-06-29T21:33:31.453344,15.34386048,.00008251,53.1610,3.9732,89.1017,271.0080,0,U,58104,999,15160,.10362285E-3,.3125E-4,0
STARLINK-30616,2023-161J,2026-06-30T10:38:43.423296,15.34771905,.00010738,53.1594,347.5170,272.1356,87.9524,0,U,58105,999,15187,.13767943E-2,.46988E-3,0
STARLINK-30612,2023-161K,2026-06-29T18:21:59.359104,15.34412182,.00006319,53.1600,350.4065,85.6760,274.4315,0,U,58106,999,15177,.35862267E-4,.836E-5,0
STARLINK-30421,2023-161L,2026-06-29T21:02:18.678912,15.34395978,.0000938,53.1594,349.6437,79.9530,280.1579,0,U,58107,999,15180,-.3873673E-5,-.507E-5,0
STARLINK-30611,2023-161M,2026-06-29T18:15:55.333440,15.34396282,.00010923,53.1589,350.3269,50.5422,309.5677,0,U,58108,999,15178,.43858305E-4,.1106E-4,0
STARLINK-30606,2023-161N,2026-06-30T11:52:44.801472,15.34386247,.00013317,53.1606,0.7823,74.5320,285.5830,0,U,58109,999,15170,.10782573E-4,-.12E-6,0
STARLINK-30596,2023-161P,2026-06-29T19:51:29.848320,15.27623005,.00085393,53.1598,4.4367,130.4418,229.7327,0,U,58110,999,15159,-.12413651E-1,-.326072E-2,0
STARLINK-30595,2023-161Q,2026-06-30T12:20:41.110080,15.30184687,.00009052,53.1613,1.6079,66.2255,293.8840,0,U,58111,999,15169,.54472635E-4,.1254E-4,0
STARLINK-30593,2023-161R,2026-06-29T19:01:32.232288,15.30193499,.00011972,53.1609,4.9258,92.2844,267.8294,0,U,58112,999,15158,.65958863E-4,.1594E-4,0
STARLINK-30353,2023-161S,2026-06-30T12:29:48.140448,15.30193576,.00009548,53.1613,1.6503,83.5866,276.5244,0,U,58113,999,15169,.16620836E-4,.133E-5,0
STARLINK-30572,2023-161T,2026-06-30T12:11:33.957888,15.30194242,.00010138,53.1604,1.5658,68.9117,291.1992,0,U,58114,999,15169,.31732035E-4,.581E-5,0
STARLINK-30580,2023-161U,2026-06-30T00:00:02.000160,15.34362288,.0001404,53.1588,3.4900,89.4353,205.9228,0,U,58115,999,567,.1398097E-2,.47101E-3,0
STARLINK-30493,2023-161V,2026-06-30T12:25:14.661120,15.30193200,.00015058,53.1611,1.6289,81.0152,279.1019,0,U,58116,999,15169,.28646588E-4,.489E-5,0
STARLINK-30601,2023-161W,2026-06-30T12:34:21.859104,15.30183069,.00002859,53.1606,1.6683,81.3758,278.7275,0,U,58117,999,15169,.93842851E-4,.242E-4,0
STARLINK-30795,2023-162A,2026-06-30T11:50:45.919392,15.27578186,.00016261,43.0024,215.0493,277.1532,82.9135,0,U,58118,999,14956,.22943581E-4,.369E-5,0
STARLINK-30765,2023-162B,2026-06-30T14:00:01.000224,15.27568273,.00013394,42.9987,214.7613,278.1507,117.0449,0,U,58119,999,581,.20552569E-2,.5671E-3,0
STARLINK-30768,2023-162C,2026-06-30T11:54:28.086624,15.27573267,.00014598,43.0050,215.0663,282.8631,77.2057,0,U,58120,999,14956,-.8047503E-5,-.484E-5,0
STARLINK-30799,2023-162D,2026-06-29T19:06:29.450880,15.27576128,.00013325,43.0022,219.2484,278.6998,81.3703,0,U,58121,999,14945,.12890828E-4,.93E-6,0
STARLINK-30759,2023-162E,2026-06-30T12:14:49.041312,15.27586051,.0001451,42.9988,215.1672,268.7338,91.3348,0,U,58122,999,14957,.43554152E-4,.937E-5,0
STARLINK-30781,2023-162F,2026-06-29T19:04:38.719776,15.27574956,.00012965,43.0005,219.2530,280.2711,79.7995,0,U,58123,999,14945,.66165946E-4,.1559E-4,0
STARLINK-30754,2023-162G,2026-06-29T19:12:03.335040,15.27553800,.00016485,43.0023,219.2768,271.9737,88.0926,0,U,58124,999,14366,.14548289E-3,.374E-4,0
STARLINK-30766,2023-162H,2026-06-30T12:59:55.940352,15.27579627,.00031863,43.0076,211.9922,270.0972,89.9515,0,U,58125,999,14960,.70630433E-4,.1681E-4,0
STARLINK-30767,2023-162J,2026-06-30T12:56:13.787808,15.27580896,.00020929,43.0068,211.9640,266.3161,93.7452,0,U,58126,999,14960,.68320403E-4,.1618E-4,0
STARLINK-30790,2023-162K,2026-06-30T11:18:17.123328,15.20341700,.00181529,42.9965,220.8831,42.7952,317.4306,0,U,58127,999,14949,.12006148E-2,.26582E-3,0
STARLINK-30787,2023-162L,2026-06-30T12:58:05.370816,15.27582106,.00011991,43.0020,211.9762,279.1452,80.9264,0,U,58128,999,14960,.9427459E-5,-.3E-7,0
STARLINK-30756,2023-162M,2026-06-29T19:17:36.297312,15.27566272,.0001711,43.0008,219.3048,275.7144,84.3512,0,U,58129,999,14945,-.48983665E-4,-.1609E-4,0
STARLINK-30783,2023-162N,2026-06-30T12:48:49.895712,15.27573385,.00015738,43.0041,211.9311,283.0843,76.9833,0,U,58130,999,14960,.9121119E-5,-.11E-6,0
STARLINK-30757,2023-162P,2026-06-30T12:43:16.662144,15.27575339,.00019375,43.0042,211.9012,273.0925,86.9705,0,U,58131,999,14960,.1660258E-5,-.217E-5,0
