STARLINK-30592          
1 58102U 23161F   26181.49286117 -.00001243  00000+0 -25679-4 0  9999
2 58102  53.1613   0.7713 0000836  86.4111 273.6987 15.34384440151705
STARLINK-30589          
1 58103U 23161G   26181.52804934  .00003676  00000+0  13618-3 0  9996
2 58103  53.1598   1.4988 0000874 104.9968 255.1129 15.30195306151696
STARLINK-30617          
1 58104U 23161H   26180.89828071  .00003125  00000+0  10362-3 0  9996
2 58104  53.1610   3.9732 0000825  89.1017 271.0080 15.34386048151604
STARLINK-30616          
1 58105U 23161J   26181.44355814  .00046988  00000+0  13768-2 0  9995
2 58105  53.1594 347.5170 0001073 272.1356  87.9524 15.34771905151871
STARLINK-30612          
1 58106U 23161K   26180.76527036  .00000836  00000+0  35862-4 0  9990
2 58106  53.1600 350.4065 0000631  85.6760 274.4315 15.34412182151770
STARLINK-30421          
1 58107U 23161L   26180.87660508 -.00000507  00000+0 -38737-5 0  9997
2 58107  53.1594 349.6437 0000938  79.9530 280.1579 15.34395978151800
STARLINK-30611          
1 58108U 23161M   26180.76105710  .00001106  00000+0  43858-4 0  9998
2 58108  53.1589 350.3269 0001092  50.5422 309.5677 15.34396282151785
STARLINK-30606          
1 58109U 23161N   26181.49496298 -.00000012  00000+0  10783-4 0  9991
2 58109  53.1606   0.7823 0001331  74.5320 285.5830 15.34386247151703
STARLINK-30596          
1 58110U 23161P   26180.82742880 -.00326072  00000+0 -12414-1 0  9998
2 58110  53.1598   4.4367 0008539 130.4418 229.7327 15.27623005151592
STARLINK-30595          
1 58111U 23161Q   26181.51436470  .00001254  00000+0  54473-4 0  9995
2 58111  53.1613   1.6079 0000905  66.2255 293.8840 15.30184687151699
STARLINK-30593          
1 58112U 23161R   26180.79273417  .00001594  00000+0  65959-4 0  9993
2 58112  53.1609   4.9258 0001197  92.2844 267.8294 15.30193499151580
STARLINK-30353          
1 58113U 23161S   26181.52069607  .00000133  00000+0  16621-4 0  9990
2 58113  53.1613   1.6503 0000954  83.5866 276.5244 15.30193576151690
STARLINK-30572          
1 58114U 23161T   26181.50803192  .00000581  00000+0  31732-4 0  9991
2 58114  53.1604   1.5658 0001013  68.9117 291.1992 15.30194242151698
STARLINK-30580          
1 58115U 23161U   26181.00002315  .00047101  00000+0  13981-2 0  9998
2 58115  53.1588   3.4900 0001404  89.4353 205.9228 15.34362288  5677
STARLINK-30493          
1 58116U 23161V   26181.51753080  .00000489  00000+0  28647-4 0  9992
2 58116  53.1611   1.6289 0001505  81.0152 279.1019 15.30193200151699
STARLINK-30601          
1 58117U 23161W   26181.52386411  .00002420  00000+0  93843-4 0  9991
2 58117  53.1606   1.6683 0000285  81.3758 278.7275 15.30183069151692
STARLINK-30795          
1 58118U 23162A   26181.49358703  .00000369  00000+0  22944-4 0  9996
2 58118  43.0024 215.0493 0001626 277.1532  82.9135 15.27578186149567
STARLINK-30765          
1 58119U 23162B   26181.58334491  .00056710  00000+0  20553-2 0  9998
2 58119  42.9987 214.7613 0001339 278.1507 117.0449 15.27568273  5811
STARLINK-30768          
1 58120U 23162C   26181.49615841 -.00000484  00000+0 -80475-5 0  9992
2 58120  43.0050 215.0663 0001459 282.8631  77.2057 15.27573267149560
STARLINK-30799          
1 58121U 23162D   26180.79617420  .00000093  00000+0  12891-4 0  9990
2 58121  43.0022 219.2484 0001332 278.6998  81.3703 15.27576128149457
STARLINK-30759          
1 58122U 23162E   26181.51028983  .00000937  00000+0  43554-4 0  9999
2 58122  42.9988 215.1672 0001451 268.7338  91.3348 15.27586051149576
STARLINK-30781          
1 58123U 23162F   26180.79489259  .00001559  00000+0  66166-4 0  9991
2 58123  43.0005 219.2530 0001296 280.2711  79.7995 15.27574956149454
STARLINK-30754          
1 58124U 23162G   26180.80003860  .00003740  00000+0  14548-3 0  9994
2 58124  43.0023 219.2768 0001648 271.9737  88.0926 15.27553800143663
STARLINK-30766          
1 58125U 23162H   26181.54161968  .00001681  00000+0  70630-4 0  9998
2 58125  43.0076 211.9922 0003186 270.0972  89.9515 15.27579627149602
STARLINK-30767          
1 58126U 23162J   26181.53904847  .00001618  00000+0  68320-4 0  9992
2 58126  43.0068 211.9640 0002092 266.3161  93.7452 15.27580896149607
STARLINK-30790          
1 58127U 23162K   26181.47103152  .00026582  00000+0  12006-2 0  9991
2 58127  42.9965 220.8831 0018152  42.7952 317.4306 15.20341700149494
STARLINK-30787          
1 58128U 23162L   26181.54033994 -.00000003  00000+0  94275-5 0  9998
2 58128  43.0020 211.9762 0001199 279.1452  80.9264 15.27582106149609
STARLINK-30756          
1 58129U 23162M   26180.80389233 -.00001609  00000+0 -48984-4 0  9996
2 58129  43.0008 219.3048 0001711 275.7144  84.3512 15.27566272149458
STARLINK-30783          
1 58130U 23162N   26181.53391083 -.00000011  00000+0  91211-5 0  9992
2 58130  43.0041 211.9311 0001573 283.0843  76.9833 15.27573385149605
STARLINK-30757          
1 58131U 23162P   26181.53005396 -.00000217  00000+0  16603-5 0  9992
2 58131  43.0042 211.9012 0001937 273.0925  86.9705 15.27575339149609
